{"Adrastea": {"gravitational_parameter": 500000.0, "orbit": {"argument_of_periapsis": 5.725500251289839, "eccentricity": 0.0018, "epoch": -93355200.0, "inclination": 0.0009424777960769379, "longitude_of_ascending_node": 3.98594803911961, "mean_anomaly_at_epoch": 2.367940556058267, "primary": "Jupiter", "semi_major_axis": 129000000.0}, "radius": 8200.0}, "Aegaeon": {"gravitational_parameter": 4.0, "orbit": {"argument_of_periapsis": 2.6686956927619296, "eccentricity": 0.0002, "epoch": 0.0, "inclination": 1.7453292519943296e-05, "longitude_of_ascending_node": 5.536219293911053, "mean_anomaly_at_epoch": 5.6334166799546175, "primary": "Saturn", "semi_major_axis": 167425000.0}, "radius": 300.0}, "Aegir": {"gravitational_parameter": 0.0, "orbit": {"argument_of_periapsis": 4.235058883256761, "eccentricity": 0.2524, "epoch": -43200.0, "inclination": 2.9089053577139095, "longitude_of_ascending_node": 3.125256371791126, "mean_anomaly_at_epoch": 0.4540823114913647, "primary": "Saturn", "semi_major_axis": 20751000000.0}, "radius": 3000.0}, "Aitne": {"gravitational_parameter": 3000.0, "orbit": {"argument_of_periapsis": 1.7348747297748834, "eccentricity": 0.2627, "epoch": -43200.0, "inclination": 2.880631023831601, "longitude_of_ascending_node": 0.15147712578058786, "mean_anomaly_at_epoch": 1.8325957145940461, "primary": "Jupiter", "semi_major_axis": 23317000000.0}, "radius": 1500.0}, "Albiorix": {"gravitational_parameter": 1400000.0, "orbit": {"argument_of_periapsis": 0.9761975572254684, "eccentricity": 0.4797, "epoch": -43200.0, "inclination": 0.5944591432292687, "longitude_of_ascending_node": 1.7891719228044272, "mean_anomaly_at_epoch": 0.5729566868446986, "primary": "Saturn", "semi_major_axis": 16393000000.0}, "radius": 16000.0}, "Amalthea": {"gravitational_parameter": 138000000.0, "orbit": {"argument_of_periapsis": 2.7204970649611213, "eccentricity": 0.0032, "epoch": -93355200.0, "inclination": 0.0066322511575784525, "longitude_of_ascending_node": 1.9014664068777423, "mean_anomaly_at_epoch": 3.2322450549383785, "primary": "Jupiter", "semi_major_axis": 181400000.0}, "radius": 83450.0}, "Ananke": {"gravitational_parameter": 2000000.0, "orbit": {"argument_of_periapsis": 1.6715367312200093, "eccentricity": 0.2332, "epoch": -43200.0, "inclination": 2.5951824246679287, "longitude_of_ascending_node": 0.27853709532577503, "mean_anomaly_at_epoch": 4.422385071873312, "primary": "Jupiter", "semi_major_axis": 21254000000.0}, "radius": 14000.0}, "Anthe": {"gravitational_parameter": 100.0, "orbit": {"argument_of_periapsis": 2.4242972376051632, "eccentricity": 0.0011, "epoch": 0.0, "inclination": 0.0002617993877991494, "longitude_of_ascending_node": 5.023965158450717, "mean_anomaly_at_epoch": 3.3243809861511595, "primary": "Saturn", "semi_major_axis": 196888000.0}, "radius": 900.0}, "Aoede": {"gravitational_parameter": 6000.0, "orbit": {"argument_of_periapsis": 1.0426422418488925, "eccentricity": 0.4325, "epoch": -43200.0, "inclination": 2.762367513716465, "longitude_of_ascending_node": 3.026261296618008, "mean_anomaly_at_epoch": 3.4500970521723104, "primary": "Jupiter", "semi_major_axis": 23974000000.0}, "radius": 2000.0}, "Arche": {"gravitational_parameter": 3000.0, "orbit": {"argument_of_periapsis": 2.9955435017829077, "eccentricity": 0.2495, "epoch": -43200.0, "inclination": 2.8800550651784427, "longitude_of_ascending_node": 5.920331355689965, "mean_anomaly_at_epoch": 0.6931226058445081, "primary": "Jupiter", "semi_major_axis": 23352000000.0}, "radius": 1500.0}, "Ariel": {"gravitational_parameter": 86400000000.0, "orbit": {"argument_of_periapsis": 2.0132198388829394, "eccentricity": 0.0012, "epoch": -631195200.0, "inclination": 0.0007155849933176752, "longitude_of_ascending_node": 0.39084903269161014, "mean_anomaly_at_epoch": 0.6890734419798813, "primary": "Uranus", "semi_major_axis": 190900000.0}, "radius": 578900.0}, "Atlas": {"gravitational_parameter": 440000.0, "orbit": {"argument_of_periapsis": 3.6800441811225637, "eccentricity": 0.0011, "epoch": 0.0, "inclination": 5.235987755982989e-05, "longitude_of_ascending_node": 4.126342324150034, "mean_anomaly_at_epoch": 4.944203611634577, "primary": "Saturn", "semi_major_axis": 137774000.0}, "radius": 15100.0}, "Autonoe": {"gravitational_parameter": 6000.0, "orbit": {"argument_of_periapsis": 0.956318257045253, "eccentricity": 0.3152, "epoch": -43200.0, "inclination": 2.6592534615086403, "longitude_of_ascending_node": 4.76155490541337, "mean_anomaly_at_epoch": 2.478978403070146, "primary": "Jupiter", "semi_major_axis": 24037000000.0}, "radius": 2000.0}, "Bebhionn": {"gravitational_parameter": 0.0, "orbit": {"argument_of_periapsis": 6.2507396363850125, "eccentricity": 0.4682, "epoch": -43200.0, "inclination": 0.6126280207425296, "longitude_of_ascending_node": 3.475439232911268, "mean_anomaly_at_epoch": 2.9329385415138707, "primary": "Saturn", "semi_major_axis": 17116000000.0}, "radius": 3000.0}, "Belinda": {"gravitational_parameter": 23800000.0, "orbit": {"argument_of_periapsis": 0.7401243226007154, "eccentricity": 0.0001, "epoch": -440208000.0, "inclination": 0.0005410520681182421, "longitude_of_ascending_node": 4.8753503726434, "mean_anomaly_at_epoch": 6.234734967144224, "primary": "Uranus", "semi_major_axis": 75300000.0}, "radius": 45000.0}, "Bergelmir": {"gravitational_parameter": 0.0, "orbit": {"argument_of_periapsis": 2.3282692221604355, "eccentricity": 0.142, "epoch": -43200.0, "inclination": 2.7673417020846487, "longitude_of_ascending_node": 3.528427429001816, "mean_anomaly_at_epoch": 5.3493294376075005, "primary": "Saturn", "semi_major_axis": 19336000000.0}, "radius": 3000.0}, "Bestla": {"gravitational_parameter": 0.0, "orbit": {"argument_of_periapsis": 1.4169455532315964, "eccentricity": 0.5145, "epoch": -43200.0, "inclination": 2.53310106317449, "longitude_of_ascending_node": 5.031923859839812, "mean_anomaly_at_epoch": 4.174059625899559, "primary": "Saturn", "semi_major_axis": 20209000000.0}, "radius": 3500.0}, "Bianca": {"gravitational_parameter": 6200000.0, "orbit": {"argument_of_periapsis": 0.14474015486788974, "eccentricity": 0.0009, "epoch": -440208000.0, "inclination": 0.0033684854563490563, "longitude_of_ascending_node": 1.626995928709114, "mean_anomaly_at_epoch": 2.417036667916867, "primary": "Uranus", "semi_major_axis": 59200000.0}, "radius": 27000.0}, "Caliban": {"gravitational_parameter": 20000000.0, "orbit": {"argument_of_periapsis": 6.184382218224187, "eccentricity": 0.1812, "epoch": 0.0, "inclination": 2.4701470370550545, "longitude_of_ascending_node": 2.987811693196573, "mean_anomaly_at_epoch": 0.1269028899125077, "primary": "Uranus", "semi_major_axis": 7231100000.0}, "radius": 36000.0}, "Callirrhoe": {"gravitational_parameter": 58000.0, "orbit": {"argument_of_periapsis": 0.41729077085932426, "eccentricity": 0.2796, "epoch": -43200.0, "inclination": 2.56703026383326, "longitude_of_ascending_node": 4.941096925566026, "mean_anomaly_at_epoch": 1.8842923670381182, "primary": "Jupiter", "semi_major_axis": 24099000000.0}, "radius": 4300.0}, "Callisto": {"gravitational_parameter": 7179289000000.0, "orbit": {"argument_of_periapsis": 0.9187936781273749, "eccentricity": 0.0074, "epoch": -93355200.0, "inclination": 0.003351032163829113, "longitude_of_ascending_node": 5.215881563000014, "mean_anomaly_at_epoch": 3.166166889457873, "primary": "Jupiter", "semi_major_axis": 1882700000.0}, "radius": 2410300.0}, "Calypso": {"gravitational_parameter": 170000.0, "orbit": {"argument_of_periapsis": 0.30490902032340933, "eccentricity": 0.0005, "epoch": 0.0, "inclination": 0.026179938779914945, "longitude_of_ascending_node": 5.484278295371702, "mean_anomaly_at_epoch": 2.7342328061743166, "primary": "Saturn", "semi_major_axis": 294721000.0}, "radius": 10700.0}, "Carme": {"gravitational_parameter": 8800000.0, "orbit": {"argument_of_periapsis": 0.4610461752068221, "eccentricity": 0.2546, "epoch": -43200.0, "inclination": 2.879688546035524, "longitude_of_ascending_node": 2.004580459085567, "mean_anomaly_at_epoch": 4.073162141841767, "primary": "Jupiter", "semi_major_axis": 23401000000.0}, "radius": 23000.0}, "Carpo": {"gravitational_parameter": 3000.0, "orbit": {"argument_of_periapsis": 1.5772889516123154, "eccentricity": 0.4317, "epoch": -43200.0, "inclination": 0.9010087730495527, "longitude_of_ascending_node": 0.883084241631571, "mean_anomaly_at_epoch": 5.882841683357127, "primary": "Jupiter", "semi_major_axis": 17056000000.0}, "radius": 1500.0}, "Ceres": {"gravitational_parameter": 63200000000.0, "orbit": {"argument_of_periapsis": 1.2657482508616356, "eccentricity": 0.07582276595896797, "epoch": 212284843200.0, "inclination": 0.18488946747307866, "longitude_of_ascending_node": 1.402010168239074, "mean_anomaly_at_epoch": 1.675327163770763, "primary": "Sun", "semi_major_axis": 414012991944.7507}, "radius": 476200.0, "rotational_period": 32667.012000000002}, "Chaldene": {"gravitational_parameter": 5000.0, "orbit": {"argument_of_periapsis": 4.2564740731787305, "eccentricity": 0.2503, "epoch": -43200.0, "inclination": 2.882498526131235, "longitude_of_ascending_node": 2.3429299878771883, "mean_anomaly_at_epoch": 4.667952897628914, "primary": "Jupiter", "semi_major_axis": 23181000000.0}, "radius": 1900.0}, "Charon": {"gravitational_parameter": 102300000000.0, "orbit": {"argument_of_periapsis": 2.550030756918835, "eccentricity": 0.0002, "epoch": 410270400.0, "inclination": 0.0013962634015954637, "longitude_of_ascending_node": 0.46998226097703305, "mean_anomaly_at_epoch": 2.2876030505889675, "primary": "Pluto", "semi_major_axis": 19591000.0}, "radius": 603600.0}, "Cordelia": {"gravitational_parameter": 3000000.0, "orbit": {"argument_of_periapsis": 2.3880816556262814, "eccentricity": 0.0003, "epoch": -440208000.0, "inclination": 0.0014835298641951802, "longitude_of_ascending_node": 0.669752647160304, "mean_anomaly_at_epoch": 4.447186200544151, "primary": "Uranus", "semi_major_axis": 49800000.0}, "radius": 20100.0}}